NORAD_CAT_ID,OBJECT_NAME,OBJECT_TYPE,EPOCH,MEAN_MOTION,ECCENTRICITY,INCLINATION,RA_OF_ASC_NODE,ARG_OF_PERICENTER,MEAN_ANOMALY,BSTAR,MEAN_MOTION_DOT,MEAN_MOTION_DDOT,TLE_LINE0,TLE_LINE1,TLE_LINE2,SEMIMAJOR_AXIS,PERIOD,APOGEE,PERIGEE,DECAYED
52280.0,STARLINK-3764,PAYLOAD,2023-06-07 09:41:28,15.08836838,8.43e-05,53.2175,306.5141,78.2877,281.821,6.1243e-05,6.87e-06,0.0,0 STARLINK-3764,1 52280U 22041V   23158.40380148  .00000687  00000-0  61243-4 0  9994,2 52280  53.2175 306.5141 0000843  78.2877 281.8210 15.08836838 63670,6917.89,95.438,540.338,539.172,0.0
52280.0,STARLINK-3764,PAYLOAD,2023-06-07 12:52:14,15.08837139,8.55e-05,53.2174,305.9193,77.7617,282.3471,6.0684e-05,6.78e-06,0.0,0 STARLINK-3764,1 52280U 22041V   23158.53628167  .00000678  00000-0  60684-4 0  9992,2 52280  53.2174 305.9193 0000855  77.7617 282.3471 15.08837139 62475,6917.889,95.438,540.346,539.163,0.0
52280.0,STARLINK-3764,PAYLOAD,2023-06-07 16:03:00,15.08838955,7.88e-05,53.2175,305.324,88.1929,271.9154,7.3057e-05,8.75e-06,0.0,0 STARLINK-3764,1 52280U 22041V   23158.66875992  .00000875  00000-0  73057-4 0  9993,2 52280  53.2175 305.3240 0000788  88.1929 271.9154 15.08838955 62491,6917.884,95.438,540.294,539.203,0.0
52280.0,STARLINK-3764,PAYLOAD,2023-06-08 12:43:01,15.08841196,9.6e-05,53.2171,301.4579,92.3326,267.7776,5.0428e-05,5.15e-06,0.0,0 STARLINK-3764,1 52280U 22041V   23159.52987872  .00000515  00000-0  50428-4 0  9998,2 52280  53.2171 301.4579 0000960  92.3326 267.7776 15.08841196 62628,6917.877,95.437,540.406,539.078,0.0
52280.0,STARLINK-3764,PAYLOAD,2023-06-08 15:53:47,15.08842331,9.27e-05,53.2172,300.8628,95.3325,264.7773,8.2596e-05,1.027e-05,0.0,0 STARLINK-3764,1 52280U 22041V   23159.66235682  .00001027  00000-0  82596-4 0  9998,2 52280  53.2172 300.8628 0000927  95.3325 264.7773 15.08842331 63865,6917.873,95.437,540.38,539.097,0.0
52280.0,STARLINK-3764,PAYLOAD,2023-06-09 09:23:02,15.08836191,5.3e-05,53.2185,297.5912,107.4803,252.6248,8.2878e-05,1.032e-05,0.0,0 STARLINK-3764,1 52280U 22041V   23160.39100078  .00001032  00000-0  82878-4 0  9999,2 52280  53.2185 297.5912 0000530 107.4803 252.6248 15.08836191 63975,6917.892,95.438,540.124,539.39,0.0
52280.0,STARLINK-3764,PAYLOAD,2023-06-09 15:44:35,15.08837475,8.04e-05,53.2177,296.4038,87.223,272.8854,5.4437e-05,5.79e-06,0.0,0 STARLINK-3764,1 52280U 22041V   23160.65596151  .00000579  00000-0  54437-4 0  9994,2 52280  53.2177 296.4038 0000804  87.2230 272.8854 15.08837475 62798,6917.888,95.438,540.309,539.197,0.0
52280.0,STARLINK-3764,PAYLOAD,2023-06-10 09:13:49,15.08838358,9.6e-05,53.2172,293.1314,93.1614,266.9488,6.5123e-06,-1.84e-06,0.0,0 STARLINK-3764,1 52280U 22041V   23161.38460291 -.00000184  00000-0  65123-5 0  9998,2 52280  53.2172 293.1314 0000960  93.1614 266.9488 15.08838358 62900,6917.885,95.438,540.415,539.086,0.0
52280.0,STARLINK-3764,PAYLOAD,2023-06-10 17:10:45,15.08840811,9.52e-05,53.2174,291.6449,91.7909,268.3193,5.6196e-05,6.07e-06,0.0,0 STARLINK-3764,1 52280U 22041V   23161.71580014  .00000607  00000-0  56196-4 0  9999,2 52280  53.2174 291.6449 0000952  91.7909 268.3193 15.08840811 64173,6917.878,95.438,540.401,539.084,0.0
52280.0,STARLINK-3764,PAYLOAD,2023-06-11 09:04:36,15.0883648,0.0001022,53.2179,288.6701,99.4354,260.6754,2.2749e-05,7.4e-07,0.0,0 STARLINK-3764,1 52280U 22041V   23162.37820530  .00000074  00000-0  22749-4 0  9997,2 52280  53.2179 288.6701 0001022  99.4354 260.6754 15.08836480 64279,6917.891,95.438,540.463,539.049,0.0
52280.0,STARLINK-3764,PAYLOAD,2023-06-11 15:26:09,15.08841838,0.0001061,53.2179,287.4831,97.2349,262.8764,9.7422e-05,1.263e-05,0.0,0 STARLINK-3764,1 52280U 22041V   23162.64316013  .00001263  00000-0  97422-4 0  9994,2 52280  53.2179 287.4831 0001061  97.2349 262.8764 15.08841838 64316,6917.875,95.437,540.474,539.006,0.0
52280.0,STARLINK-3764,PAYLOAD,2023-06-11 18:36:55,15.08843879,0.0001053,53.2179,286.888,96.9527,263.1585,9.9471e-05,1.296e-05,0.0,0 STARLINK-3764,1 52280U 22041V   23162.77563869  .00001296  00000-0  99471-4 0  9993,2 52280  53.2179 286.8880 0001053  96.9527 263.1585 15.08843879 63117,6917.869,95.437,540.462,539.005,0.0
52280.0,STARLINK-3764,PAYLOAD,2023-06-12 00:58:27,15.08840254,9.19e-05,53.218,285.697,86.7257,273.384,8.2432e-05,1.024e-05,0.0,0 STARLINK-3764,1 52280U 22041V   23163.04060120  .00001024  00000-0  82432-4 0  9994,2 52280  53.2180 285.6970 0000919  86.7257 273.3840 15.08840254 63158,6917.88,95.438,540.38,539.109,0.0
52280.0,STARLINK-3764,PAYLOAD,2023-06-12 15:16:56,15.08833815,9.96e-05,53.2183,283.0216,97.2483,262.8622,-2.65e-07,-2.92e-06,0.0,0 STARLINK-3764,1 52280U 22041V   23163.63676935 -.00000292  00000-0 -26500-6 0  9990,2 52280  53.2183 283.0216 0000996  97.2483 262.8622 15.08833815 64460,6917.899,95.438,540.453,539.075,0.0
52280.0,STARLINK-3764,PAYLOAD,2023-06-13 00:49:15,15.08839355,9.83e-05,53.218,281.2383,89.7059,270.4046,-2.559e-05,-6.95e-06,0.0,0 STARLINK-3764,1 52280U 22041V   23164.03420754 -.00000695  00000-0 -25590-4 0  9994,2 52280  53.2180 281.2383 0000983  89.7059 270.4046 15.08839355 63305,6917.882,95.438,540.427,539.067,0.0
52280.0,STARLINK-3764,PAYLOAD,2023-06-14 00:40:02,15.08840042,8.33e-05,53.217,276.7781,83.9071,276.2016,4.755e-05,4.69e-06,0.0,0 STARLINK-3764,1 52280U 22041V   23165.02780599  .00000469  00000-0  47550-4 0  9997,2 52280  53.2170 276.7781 0000833  83.9071 276.2016 15.08840042 64676,6917.88,95.438,540.322,539.169,0.0
52280.0,STARLINK-3764,PAYLOAD,2023-06-14 07:01:34,15.08841365,9.68e-05,53.2193,275.589,88.0373,272.073,3.2277e-05,2.26e-06,0.0,0 STARLINK-3764,1 52280U 22041V   23165.29276603  .00000226  00000-0  32277-4 0  9993,2 52280  53.2193 275.5890 0000968  88.0373 272.0730 15.08841365 63494,6917.876,95.437,540.411,539.072,0.0
52280.0,STARLINK-3764,PAYLOAD,2023-06-15 13:13:55,15.0883894,0.0001222,53.2184,269.94,76.7892,283.3236,3.3416e-06,-2.35e-06,0.0,0 STARLINK-3764,1 52280U 22041V   23166.55133238 -.00000235  00000-0  33416-5 0  9997,2 52280  53.2184 269.9400 0001222  76.7892 283.3236 15.08838940 63684,6917.884,95.438,540.594,538.903,0.0
52280.0,STARLINK-3764,PAYLOAD,2023-06-16 00:21:36,15.08844632,0.0001265,53.2185,267.8584,77.113,283.0004,4.7484e-05,4.68e-06,0.0,0 STARLINK-3764,1 52280U 22041V   23167.01500689  .00000468  00000-0  47484-4 0  9993,2 52280  53.2185 267.8584 0001265  77.1130 283.0004 15.08844632 64970,6917.866,95.437,540.606,538.856,0.0
52280.0,STARLINK-3764,PAYLOAD,2023-06-16 09:53:54,15.08851603,0.0001169,53.2163,266.0736,77.4909,282.6214,0.00012714,1.737e-05,0.0,0 STARLINK-3764,1 52280U 22041V   23167.41243809  .00001737  00000-0  12714-3 0  9992,2 52280  53.2163 266.0736 0001169  77.4909 282.6214 15.08851603 65038,6917.845,95.437,540.519,538.901,0.0
52280.0,STARLINK-3764,PAYLOAD,2023-06-16 13:04:40,15.08854416,9.11e-05,53.2172,265.4774,87.9419,272.1678,0.00021435,3.127e-05,0.0,0 STARLINK-3764,1 52280U 22041V   23167.54491262  .00003127  00000-0  21435-3 0  9999,2 52280  53.2172 265.4774 0000911  87.9419 272.1678 15.08854416 63838,6917.836,95.437,540.332,539.071,0.0
52280.0,STARLINK-3764,PAYLOAD,2023-06-17 12:55:30,15.08826989,0.0001129,53.2171,261.0172,102.2562,257.8556,-1.447e-05,-5.18e-06,0.0,0 STARLINK-3764,1 52280U 22041V   23168.53854212 -.00000518  00000-0 -14470-4 0  9992,2 52280  53.2171 261.0172 0001129 102.2562 257.8556 15.08826989 63988,6917.92,95.438,540.566,539.004,0.0
52280.0,STARLINK-3764,PAYLOAD,2023-06-17 14:30:54,15.08814957,0.0001002,53.2171,260.7204,98.5435,261.567,-0.00015755,-2.792e-05,0.0,0 STARLINK-3764,1 52280U 22041V   23168.60479298 -.00002792  00000-0 -15755-3 0  9999,2 52280  53.2171 260.7204 0001002  98.5435 261.5670 15.08814957 65215,6917.957,95.439,540.515,539.129,0.0
52280.0,STARLINK-3764,PAYLOAD,2023-06-18 06:24:45,15.08830524,9.07e-05,53.2165,257.7472,92.062,268.0476,-9.7696e-05,-1.842e-05,0.0,0 STARLINK-3764,1 52280U 22041V   23169.26718824 -.00001842  00000-0 -97696-4 0  9993,2 52280  53.2165 257.7472 0000907  92.0620 268.0476 15.08830524 65314,6917.909,95.438,540.402,539.147,0.0
52280.0,STARLINK-3764,PAYLOAD,2023-06-18 12:46:16,15.08839854,9.53e-05,53.2166,256.5574,96.8777,263.2324,-6.8649e-06,-3.97e-06,0.0,0 STARLINK-3764,1 52280U 22041V   23169.53214098 -.00000397  00000-0 -68649-5 0  9998,2 52280  53.2166 256.5574 0000953  96.8777 263.2324 15.08839854 64134,6917.881,95.438,540.405,539.087,0.0
52280.0,STARLINK-3764,PAYLOAD,2023-06-19 12:37:03,15.08861286,9.5e-05,53.216,252.097,100.1755,259.9344,0.00077218,0.0001203,0.0,0 STARLINK-3764,1 52280U 22041V   23170.52573831  .00012030  00000-0  77218-3 0  9997,2 52280  53.2160 252.0970 0000950 100.1755 259.9344 15.08861286 65501,6917.815,95.436,540.338,539.023,0.0
52280.0,STARLINK-3764,PAYLOAD,2023-06-20 04:30:54,15.0885194,0.0001221,53.216,249.1239,84.4055,275.7077,7.2975e-05,8.74e-06,0.0,0 STARLINK-3764,1 52280U 22041V   23171.18813526  .00000874  00000-0  72975-4 0  9997,2 52280  53.2160 249.1239 0001221  84.4055 275.7077 15.08851940 65601,6917.844,95.437,540.554,538.864,0.0
52280.0,STARLINK-3764,PAYLOAD,2023-06-20 06:06:18,15.08848375,8.76e-05,53.216,248.8263,86.6716,273.4377,-8.3746e-06,-4.21e-06,0.0,0 STARLINK-3764,1 52280U 22041V   23171.25437532 -.00000421  00000-0 -83746-5 0  9993,2 52280  53.2160 248.8263 0000876  86.6716 273.4377 15.08848375 64398,6917.855,95.437,540.326,539.114,0.0
52280.0,STARLINK-3764,PAYLOAD,2023-06-20 15:38:36,15.08852228,9.31e-05,53.2158,247.0423,80.123,279.9867,0.00036197,5.48e-05,0.0,0 STARLINK-3764,1 52280U 22041V   23171.65181109  .00005480  00000-0  36197-3 0  9997,2 52280  53.2158 247.0423 0000931  80.1230 279.9867 15.08852228 64450,6917.843,95.437,540.352,539.064,0.0
52280.0,STARLINK-3764,PAYLOAD,2023-06-20 22:00:09,15.08840362,9.57e-05,53.2146,245.8501,76.0918,284.0181,0.000147,2.053e-05,0.0,0 STARLINK-3764,1 52280U 22041V   23171.91677289  .00002053  00000-0  14700-3 0  9994,2 52280  53.2146 245.8501 0000957  76.0918 284.0181 15.08840362 65717,6917.879,95.438,540.406,539.082,0.0
